OBJECT_NAME,OBJECT_ID,EPOCH,MEAN_MOTION,ECCENTRICITY,INCLINATION,RA_OF_ASC_NODE,ARG_OF_PERICENTER,MEAN_ANOMALY,EPHEMERIS_TYPE,CLASSIFICATION_TYPE,NORAD_CAT_ID,ELEMENT_SET_NO,REV_AT_EPOCH,BSTAR,MEAN_MOTION_DOT,MEAN_MOTION_DDOT
CARTOSAT-2E,2017-036C,2026-06-14T03:30:59.841216,15.19234418,.0002662,97.4285,224.9986,336.2358,23.8753,0,U,42767,999,49768,.20662E-3,.4285E-4,0
IRIDIUM 113,2017-039A,2026-06-13T23:04:11.213760,14.34217730,.0002289,86.3967,323.5275,89.2450,270.9008,0,U,42803,999,47072,.30469E-5,.28E-6,0
NORSAT 2,2017-042D,2026-06-14T04:48:38.388384,15.21876862,.0010689,97.4029,338.6886,66.6867,293.5493,0,U,42828,999,48728,.43781E-3,.9911E-4,0
TECHNOSAT,2017-042E,2026-06-14T02:58:57.309024,15.04940858,.0018803,97.4270,322.8986,103.8584,256.4737,0,U,42829,999,48624,.28376E-3,.3976E-4,0
FLYING LAPTOP,2017-042G,2026-06-14T04:27:42.768288,15.01127303,.0019513,97.4668,320.8343,131.5307,228.7595,0,U,42831,999,48600,.24429E-3,.3083E-4,0
WNISAT 1R,2017-042L,2026-06-14T03:50:38.749344,15.01751249,.0010793,97.4829,321.3905,157.2629,202.9076,0,U,42835,999,48605,.17727E-3,.2252E-4,0
LEMUR-2-GREENBERG,2017-042N,2026-06-14T05:04:56.665344,15.31247013,.0008807,97.3809,345.8505,24.5489,335.6170,0,U,42837,999,48793,.53319E-3,.1605E-3,0
LEMUR-2-FURIAUS,2017-042R,2026-06-14T00:10:28.826976,15.30158223,.0008324,97.3761,343.6098,78.7756,281.4420,0,U,42840,999,48772,.6045E-3,.17604E-3,0
CORVUS BC2,2017-042X,2026-06-14T04:55:54.461280,15.06276912,.0014195,97.4052,326.6713,119.8505,240.4136,0,U,42846,999,48661,.26571E-3,.385E-4,0
CORVUS BC1,2017-042Y,2026-06-14T04:48:38.074752,15.06447584,.00132,97.4087,327.4785,98.3822,261.8902,0,U,42847,999,48664,.26634E-3,.3877E-4,0
VRSS-2,2017-060A,2026-06-14T05:09:10.227744,14.81191627,.0018549,97.6517,203.0754,107.6910,252.6330,0,U,42954,999,46801,.15957E-3,.1195E-4,0
MOHAMMED VI-A,2017-070A,2026-06-14T03:53:58.927776,14.77066106,.0001381,97.9564,237.5350,73.7743,286.3619,0,U,43005,999,46353,.12281E-3,.816E-5,0
FENGYUN 3D,2017-072A,2026-06-14T04:29:52.871136,14.19740500,.0002596,99.0117,139.5552,66.5982,293.5466,0,U,43010,999,44456,.24572E-3,.474E-5,0
NOAA 20 (JPSS-1),2017-073A,2026-06-14T02:40:24.278304,14.19511186,.0000289,98.7773,104.6013,72.0377,288.0831,0,U,43013,999,44403,.33168E-4,.26E-6,0
MAKERSAT 0,2017-073D,2026-06-13T21:56:29.924736,15.31998671,.0105274,97.4636,47.4083,284.8512,74.1088,0,U,43016,999,46596,.51447E-3,.18871E-3,0
RADFXSAT (FOX-1B),2017-073E,2026-06-14T03:57:52.147296,15.12676252,.015002,97.4711,32.4423,339.7576,19.7744,0,U,43017,999,46493,.37613E-3,.8607E-4,0
JILIN-1 04,2017-074A,2026-06-14T04:00:12.180960,15.42375909,.000388,97.4860,274.6985,188.7482,171.3698,0,U,43022,999,47380,.31518E-3,.13525E-3,0
JILIN-1 05,2017-074B,2026-06-14T04:27:07.758144,15.33833878,.000412,97.4866,271.2987,226.4116,133.6785,0,U,43023,999,47354,.26012E-3,.8433E-4,0
JILIN-1 06,2017-074C,2026-06-14T03:45:42.372288,15.33662656,.0005485,97.4793,268.2831,243.6405,116.4275,0,U,43024,999,47337,.1817E-3,.5834E-4,0
IRIDIUM 116,2017-083C,2026-06-14T03:29:03.118272,14.34217938,.0001923,86.3960,323.2734,97.2780,262.8634,0,U,43072,999,44373,.12386E-4,.54E-6,0
IRIDIUM 130,2017-083D,2026-06-14T04:23:51.122112,14.34217234,.0001837,86.3967,323.5326,90.8150,269.3257,0,U,43073,999,44368,-.15763E-4,-.24E-6,0
LKW-2,2017-084A,2026-06-14T05:01:36.529248,15.26304052,.0000747,97.1195,205.1441,181.8155,178.3082,0,U,43080,999,47123,.22047E-3,.5652E-4,0
SUPERVIEW-1 03,2018-002A,2026-06-14T04:12:23.005728,15.39166779,.0046986,97.3140,250.0170,190.3008,169.7280,0,U,43099,999,46790,.43329E-3,.17411E-3,0
CARTOSAT-2F,2018-004A,2026-06-14T04:17:13.377984,15.19195896,.0000551,97.4794,224.8423,240.1534,119.9646,0,U,43111,999,46687,.28042E-3,.5833E-4,0
LKW-3,2018-006A,2026-06-14T04:27:48.111264,15.35191568,.0002246,97.6598,325.6428,337.0671,23.0471,0,U,43146,999,46825,.26537E-3,.8982E-4,0
ASNARO-2,2018-007A,2026-06-14T03:54:07.673184,15.22410935,.0001704,97.3965,172.1370,90.1823,269.9608,0,U,43152,999,46695,.41401E-3,.9503E-4,0
JILIN-1 07,2018-008E,2026-06-14T05:22:41.585088,15.34678336,.0010056,97.1767,185.2315,74.1634,286.0718,0,U,43159,999,46454,.25732E-3,.8585E-4,0
JILIN-1 08,2018-008F,2026-06-14T03:46:17.061888,15.33680956,.000808,97.1800,184.4861,88.4238,271.7931,0,U,43160,999,46448,.19453E-3,.6264E-4,0
